CCSDS_OMM_VERS = 2.0
CREATION_DATE  = 
ORIGINATOR     = 

OBJECT_NAME    = STARLINK-36744
OBJECT_ID      = 2026-039B
CENTER_NAME    = EARTH
REF_FRAME      = TEME
TIME_SYSTEM    = UTC
MEAN_ELEMENT_THEORY = SGP/SGP4

EPOCH          = 2026-03-03T14:00:03.000384
MEAN_MOTION    = 16.01576759
ECCENTRICITY   = .0001729
INCLINATION    = 42.9990
RA_OF_ASC_NODE = 92.9709
ARG_OF_PERICENTER = 277.3159
MEAN_ANOMALY   = 346.8529

EPHEMERIS_TYPE = 0
CLASSIFICATION_TYPE = U
NORAD_CAT_ID   = 67987
ELEMENT_SET_NO = 999
REV_AT_EPOCH   = 189
BSTAR          = -.20928E-2
MEAN_MOTION_DOT = -.1220295E-1
MEAN_MOTION_DDOT = .47981E-3

CCSDS_OMM_VERS = 2.0
CREATION_DATE  = 
ORIGINATOR     = 

OBJECT_NAME    = STARLINK-36734
OBJECT_ID      = 2026-039C
CENTER_NAME    = EARTH
REF_FRAME      = TEME
TIME_SYSTEM    = UTC
MEAN_ELEMENT_THEORY = SGP/SGP4

EPOCH          = 2026-03-03T14:00:03.000384
MEAN_MOTION    = 16.01717704
ECCENTRICITY   = .0001748
INCLINATION    = 42.9990
RA_OF_ASC_NODE = 92.9690
ARG_OF_PERICENTER = 277.6394
MEAN_ANOMALY   = 347.3229

EPHEMERIS_TYPE = 0
CLASSIFICATION_TYPE = U
NORAD_CAT_ID   = 67988
ELEMENT_SET_NO = 999
REV_AT_EPOCH   = 189
BSTAR          = -.20687E-2
MEAN_MOTION_DOT = -.1216341E-1
MEAN_MOTION_DDOT = .47771E-3

CCSDS_OMM_VERS = 2.0
CREATION_DATE  = 
ORIGINATOR     = 

OBJECT_NAME    = STARLINK-36957
OBJECT_ID      = 2026-039D
CENTER_NAME    = EARTH
REF_FRAME      = TEME
TIME_SYSTEM    = UTC
MEAN_ELEMENT_THEORY = SGP/SGP4

EPOCH          = 2026-03-03T14:00:03.000384
MEAN_MOTION    = 16.01813853
ECCENTRICITY   = .0001762
INCLINATION    = 42.9989
RA_OF_ASC_NODE = 92.9670
ARG_OF_PERICENTER = 278.4252
MEAN_ANOMALY   = 347.2042

EPHEMERIS_TYPE = 0
CLASSIFICATION_TYPE = U
NORAD_CAT_ID   = 67989
ELEMENT_SET_NO = 999
REV_AT_EPOCH   = 189
BSTAR          = -.20423E-2
MEAN_MOTION_DOT = -.1207716E-1
MEAN_MOTION_DDOT = .47204E-3

CCSDS_OMM_VERS = 2.0
CREATION_DATE  = 
ORIGINATOR     = 

OBJECT_NAME    = STARLINK-36951
OBJECT_ID      = 2026-039E
CENTER_NAME    = EARTH
REF_FRAME      = TEME
TIME_SYSTEM    = UTC
MEAN_ELEMENT_THEORY = SGP/SGP4

EPOCH          = 2026-03-03T14:00:03.000384
MEAN_MOTION    = 16.01949740
ECCENTRICITY   = .00018181
INCLINATION    = 42.9990
RA_OF_ASC_NODE = 92.9652
ARG_OF_PERICENTER = 277.2446
MEAN_ANOMALY   = 349.1623

EPHEMERIS_TYPE = 0
CLASSIFICATION_TYPE = U
NORAD_CAT_ID   = 67990
ELEMENT_SET_NO = 999
REV_AT_EPOCH   = 189
BSTAR          = -.20187153E-2
MEAN_MOTION_DOT = -.1203403E-1
MEAN_MOTION_DDOT = .46966207E-3

CCSDS_OMM_VERS = 2.0
CREATION_DATE  = 
ORIGINATOR     = 

OBJECT_NAME    = STARLINK-36941
OBJECT_ID      = 2026-039F
CENTER_NAME    = EARTH
REF_FRAME      = TEME
TIME_SYSTEM    = UTC
MEAN_ELEMENT_THEORY = SGP/SGP4

EPOCH          = 2026-03-03T14:00:03.000384
MEAN_MOTION    = 16.02029759
ECCENTRICITY   = .0001734
INCLINATION    = 42.9989
RA_OF_ASC_NODE = 92.9634
ARG_OF_PERICENTER = 278.6654
MEAN_ANOMALY   = 348.3551

EPHEMERIS_TYPE = 0
CLASSIFICATION_TYPE = U
NORAD_CAT_ID   = 67991
ELEMENT_SET_NO = 999
REV_AT_EPOCH   = 189
BSTAR          = -.20009E-2
MEAN_MOTION_DOT = -.1198456E-1
MEAN_MOTION_DDOT = .46655E-3

CCSDS_OMM_VERS = 2.0
CREATION_DATE  = 
ORIGINATOR     = 

OBJECT_NAME    = STARLINK-36950
OBJECT_ID      = 2026-039G
CENTER_NAME    = EARTH
REF_FRAME      = TEME
TIME_SYSTEM    = UTC
MEAN_ELEMENT_THEORY = SGP/SGP4

EPOCH          = 2026-03-03T14:00:03.000384
MEAN_MOTION    = 16.02154769
ECCENTRICITY   = .000175
INCLINATION    = 42.9990
RA_OF_ASC_NODE = 92.9616
ARG_OF_PERICENTER = 277.6024
MEAN_ANOMALY   = 350.1725

EPHEMERIS_TYPE = 0
CLASSIFICATION_TYPE = U
NORAD_CAT_ID   = 67992
ELEMENT_SET_NO = 999
REV_AT_EPOCH   = 189
BSTAR          = -.19752E-2
MEAN_MOTION_DOT = -.1191871E-1
MEAN_MOTION_DDOT = .46252E-3

CCSDS_OMM_VERS = 2.0
CREATION_DATE  = 
ORIGINATOR     = 

OBJECT_NAME    = STARLINK-36975
OBJECT_ID      = 2026-039H
CENTER_NAME    = EARTH
REF_FRAME      = TEME
TIME_SYSTEM    = UTC
MEAN_ELEMENT_THEORY = SGP/SGP4

EPOCH          = 2026-03-03T14:00:03.000384
MEAN_MOTION    = 16.02266174
ECCENTRICITY   = .0001823
INCLINATION    = 42.9990
RA_OF_ASC_NODE = 92.9599
ARG_OF_PERICENTER = 277.2001
MEAN_ANOMALY   = 351.2886

EPHEMERIS_TYPE = 0
CLASSIFICATION_TYPE = U
NORAD_CAT_ID   = 67993
ELEMENT_SET_NO = 999
REV_AT_EPOCH   = 189
BSTAR          = -.1948E-2
MEAN_MOTION_DOT = -.1183344E-1
MEAN_MOTION_DDOT = .45705E-3

CCSDS_OMM_VERS = 2.0
CREATION_DATE  = 
ORIGINATOR     = 

OBJECT_NAME    = STARLINK-36993
OBJECT_ID      = 2026-039J
CENTER_NAME    = EARTH
REF_FRAME      = TEME
TIME_SYSTEM    = UTC
MEAN_ELEMENT_THEORY = SGP/SGP4

EPOCH          = 2026-03-03T14:00:03.000384
MEAN_MOTION    = 16.02402663
ECCENTRICITY   = .0001773
INCLINATION    = 42.9991
RA_OF_ASC_NODE = 92.9580
ARG_OF_PERICENTER = 278.3645
MEAN_ANOMALY   = 350.8986

EPHEMERIS_TYPE = 0
CLASSIFICATION_TYPE = U
NORAD_CAT_ID   = 67994
ELEMENT_SET_NO = 999
REV_AT_EPOCH   = 189
BSTAR          = -.19321E-2
MEAN_MOTION_DOT = -.1183208E-1
MEAN_MOTION_DDOT = .45765E-3

CCSDS_OMM_VERS = 2.0
CREATION_DATE  = 
ORIGINATOR     = 

OBJECT_NAME    = STARLINK-36968
OBJECT_ID      = 2026-039K
CENTER_NAME    = EARTH
REF_FRAME      = TEME
TIME_SYSTEM    = UTC
MEAN_ELEMENT_THEORY = SGP/SGP4

EPOCH          = 2026-03-03T14:00:03.000384
MEAN_MOTION    = 16.02714179
ECCENTRICITY   = .0001796
INCLINATION    = 42.9991
RA_OF_ASC_NODE = 92.9514
ARG_OF_PERICENTER = 278.7541
MEAN_ANOMALY   = 353.1164

EPHEMERIS_TYPE = 0
CLASSIFICATION_TYPE = U
NORAD_CAT_ID   = 67995
ELEMENT_SET_NO = 999
REV_AT_EPOCH   = 189
BSTAR          = -.1902E-2
MEAN_MOTION_DOT = -.1186525E-1
MEAN_MOTION_DDOT = .46159E-3

CCSDS_OMM_VERS = 2.0
CREATION_DATE  = 
ORIGINATOR     = 

OBJECT_NAME    = STARLINK-36979
OBJECT_ID      = 2026-039L
CENTER_NAME    = EARTH
REF_FRAME      = TEME
TIME_SYSTEM    = UTC
MEAN_ELEMENT_THEORY = SGP/SGP4

EPOCH          = 2026-03-03T14:00:03.000384
MEAN_MOTION    = 16.02594300
ECCENTRICITY   = .0001756
INCLINATION    = 42.9990
RA_OF_ASC_NODE = 92.9531
ARG_OF_PERICENTER = 278.5554
MEAN_ANOMALY   = 352.5876

EPHEMERIS_TYPE = 0
CLASSIFICATION_TYPE = U
NORAD_CAT_ID   = 67996
ELEMENT_SET_NO = 999
REV_AT_EPOCH   = 189
BSTAR          = -.19212E-2
MEAN_MOTION_DOT = -.1189905E-1
MEAN_MOTION_DDOT = .46338E-3

CCSDS_OMM_VERS = 2.0
CREATION_DATE  = 
ORIGINATOR     = 

OBJECT_NAME    = STARLINK-36994
OBJECT_ID      = 2026-039M
CENTER_NAME    = EARTH
REF_FRAME      = TEME
TIME_SYSTEM    = UTC
MEAN_ELEMENT_THEORY = SGP/SGP4

EPOCH          = 2026-03-03T14:00:03.000384
MEAN_MOTION    = 16.02990922
ECCENTRICITY   = .0001789
INCLINATION    = 42.9990
RA_OF_ASC_NODE = 92.9472
ARG_OF_PERICENTER = 278.5694
MEAN_ANOMALY   = 354.8785

EPHEMERIS_TYPE = 0
CLASSIFICATION_TYPE = U
NORAD_CAT_ID   = 67997
ELEMENT_SET_NO = 999
REV_AT_EPOCH   = 189
BSTAR          = -.18605E-2
MEAN_MOTION_DOT = -.1180014E-1
MEAN_MOTION_DDOT = .45839E-3

CCSDS_OMM_VERS = 2.0
CREATION_DATE  = 
ORIGINATOR     = 

OBJECT_NAME    = STARLINK-36988
OBJECT_ID      = 2026-039N
CENTER_NAME    = EARTH
REF_FRAME      = TEME
TIME_SYSTEM    = UTC
MEAN_ELEMENT_THEORY = SGP/SGP4

EPOCH          = 2026-03-03T14:00:03.000384
MEAN_MOTION    = 16.02870609
ECCENTRICITY   = .0001748
INCLINATION    = 42.9991
RA_OF_ASC_NODE = 92.9492
ARG_OF_PERICENTER = 277.7253
MEAN_ANOMALY   = 354.9822

EPHEMERIS_TYPE = 0
CLASSIFICATION_TYPE = U
NORAD_CAT_ID   = 67998
ELEMENT_SET_NO = 999
REV_AT_EPOCH   = 189
BSTAR          = -.1884E-2
MEAN_MOTION_DOT = -.118624E-1
MEAN_MOTION_DDOT = .4622E-3

CCSDS_OMM_VERS = 2.0
CREATION_DATE  = 
ORIGINATOR     = 

OBJECT_NAME    = STARLINK-36926
OBJECT_ID      = 2026-039P
CENTER_NAME    = EARTH
REF_FRAME      = TEME
TIME_SYSTEM    = UTC
MEAN_ELEMENT_THEORY = SGP/SGP4

EPOCH          = 2026-03-03T14:00:03.000384
MEAN_MOTION    = 16.03120618
ECCENTRICITY   = .0001833
INCLINATION    = 42.9991
RA_OF_ASC_NODE = 92.9455
ARG_OF_PERICENTER = 276.2339
MEAN_ANOMALY   = 357.9852

EPHEMERIS_TYPE = 0
CLASSIFICATION_TYPE = U
NORAD_CAT_ID   = 67999
ELEMENT_SET_NO = 999
REV_AT_EPOCH   = 189
BSTAR          = -.18348E-2
MEAN_MOTION_DOT = -.117281E-1
MEAN_MOTION_DDOT = .45395E-3

CCSDS_OMM_VERS = 2.0
CREATION_DATE  = 
ORIGINATOR     = 

OBJECT_NAME    = STARLINK-36931
OBJECT_ID      = 2026-039Q
CENTER_NAME    = EARTH
REF_FRAME      = TEME
TIME_SYSTEM    = UTC
MEAN_ELEMENT_THEORY = SGP/SGP4

EPOCH          = 2026-03-03T14:00:03.000384
MEAN_MOTION    = 16.03207784
ECCENTRICITY   = .0001788
INCLINATION    = 42.9992
RA_OF_ASC_NODE = 92.9440
ARG_OF_PERICENTER = 278.0237
MEAN_ANOMALY   = 356.8308

EPHEMERIS_TYPE = 0
CLASSIFICATION_TYPE = U
NORAD_CAT_ID   = 68000
ELEMENT_SET_NO = 999
REV_AT_EPOCH   = 189
BSTAR          = -.18192E-2
MEAN_MOTION_DOT = -.1168961E-1
MEAN_MOTION_DDOT = .45167E-3

CCSDS_OMM_VERS = 2.0
CREATION_DATE  = 
ORIGINATOR     = 

OBJECT_NAME    = STARLINK-36903
OBJECT_ID      = 2026-039R
CENTER_NAME    = EARTH
REF_FRAME      = TEME
TIME_SYSTEM    = UTC
MEAN_ELEMENT_THEORY = SGP/SGP4

EPOCH          = 2026-03-03T14:00:03.000384
MEAN_MOTION    = 16.03346782
ECCENTRICITY   = .0001768
INCLINATION    = 42.9994
RA_OF_ASC_NODE = 92.9420
ARG_OF_PERICENTER = 278.6409
MEAN_ANOMALY   = 356.9989

EPHEMERIS_TYPE = 0
CLASSIFICATION_TYPE = U
NORAD_CAT_ID   = 68001
ELEMENT_SET_NO = 999
REV_AT_EPOCH   = 189
BSTAR          = -.18002E-2
MEAN_MOTION_DOT = -.1166475E-1
MEAN_MOTION_DDOT = .45063E-3

